0 FENGYUN 1C DEB
1 30283U 99025YU  13282.01141211  .00000658  00000-0  40600-3 0  2780
2 30283 099.1485 305.7081 0191476 139.5931 280.7674 14.00102940344340
0 FENGYUN 1C DEB
1 30283U 99025YU  13283.08576595  .00000648  00000-0  40060-3 0  2795
2 30283 099.1486 306.7830 0191486 136.6451 295.9013 14.00104495344498
0 FENGYUN 1C DEB
1 30283U 99025YU  13284.29875238  .00000647  00000-0  39978-3 0  2802
2 30283 099.1486 307.9968 0191484 133.3225 289.7957 14.00106121344669
0 FENGYUN 1C DEB
1 30283U 99025YU  13285.29922517  .00000615  00000-0  38133-3 0  2814
2 30283 099.1485 308.9979 0191479 130.5802 292.5506 14.00107553344803
0 FENGYUN 1C DEB
1 30283U 99025YU  13286.66692682  .00000618  00000-0  38289-3 0  2829
2 30283 099.1484 310.3665 0191467 126.8371 346.2779 14.00109460344995
0 FENGYUN 1C DEB
1 30283U 99025YU  13287.66770866  .00000614  00000-0  38036-3 0  2838
2 30283 099.1483 311.3679 0191443 124.0945 350.6013 14.00111193345134
0 FENGYUN 1C DEB
1 30283U 99025YU  13289.53332920  .00000561  00000-0  34984-3 0  2841
2 30283 099.1483 313.2346 0191414 118.9842 034.0564 14.00114258345399
0 FENGYUN 1C DEB
1 30283U 99025YU  13290.53386722  .00000558  00000-0  34812-3 0  2859
2 30283 099.1484 314.2356 0191400 116.2405 037.1695 14.00115626345538
0 FENGYUN 1C DEB
1 30283U 99025YU  13291.53419553  .00000533  00000-0  33381-3 0  2863
2 30283 099.1485 315.2365 0191388 113.5004 039.2276 14.00116959345673
0 FENGYUN 1C DEB
1 30283U 99025YU  13292.53463028  .00000524  00000-0  32833-3 0  2872
2 30283 099.1486 316.2375 0191372 110.7587 041.8284 14.00118234345816
0 FENGYUN 1C DEB
1 30283U 99025YU  13293.53506816  .00000514  00000-0  32262-3 0  2882
2 30283 099.1488 317.2384 0191344 108.0192 044.4474 14.00119513345956
0 FENGYUN 1C DEB
1 30283U 99025YU  13294.53550138  .00000487  00000-0  30717-3 0  2892
2 30283 099.1490 318.2394 0191314 105.2788 047.0480 14.00120806346097
0 FENGYUN 1C DEB
1 30283U 99025YU  13295.53593413  .00000484  00000-0  30526-3 0  2903
2 30283 099.1491 319.2405 0191288 102.5365 049.6532 14.00122042346239
